ONEWEB-0231
1 48782U 21045R   26164.70096415  .00000018  00000+0  12847-4 0  9996
2 48782  87.9003 259.8912 0001783 105.9959 254.1368 13.15548024243888
ONEWEB-0234
1 48783U 21045S   26164.73885817 -.00000050  00000+0 -16566-3 0  9991
2 48783  87.9010 259.8651 0002669 112.4347 247.7066 13.15548791244026
ONEWEB-0238
1 48784U 21045T   26164.81517913 -.00000040  00000+0 -13945-3 0  9997
2 48784  87.9016 259.8441 0002284 108.1225 252.0154 13.15546899243933
ONEWEB-0240
1 48785U 21045U   26164.76037998 -.00000105  00000+0 -31385-3 0  9992
2 48785  87.9012 259.8656 0001843 110.6035 249.5293 13.15547372243959
ONEWEB-0246
1 48786U 21045V   26164.75484354 -.00000147  00000+0 -42571-3 0  9999
2 48786  87.9011 259.8707 0001878  97.8313 262.3031 13.15549004243822
ONEWEB-0210
1 48787U 21045W   26164.80553194  .00000053  00000+0  10613-3 0  9991
2 48787  87.9011 259.8579 0001168  84.5335 275.5929 13.15550815243878
ONEWEB-0214
1 48788U 21045X   26164.81425853 -.00000115  00000+0 -34017-3 0  9998
2 48788  87.9012 259.8527 0001846  89.7023 270.4319 13.15548597243845
ONEWEB-0221
1 48789U 21045Y   26164.82139186 -.00000111  00000+0 -32949-3 0  9999
2 48789  87.9012 259.8600 0001783 103.2873 256.8456 13.15548181243932
ONEWEB-0213
1 48790U 21045Z   26164.81028745 -.00000027  00000+0 -10700-3 0  9995
2 48790  87.9011 259.8656 0001655 101.5886 258.5430 13.15546867243993
ONEWEB-0212
1 48791U 21045AA  26164.78732333  .00000093  00000+0  21414-3 0  9992
2 48791  87.9009 259.8647 0002018 101.7311 258.4046 13.15549711243982
ONEWEB-0227
1 48792U 21045AB  26164.78653601  .00000119  00000+0  28178-3 0  9996
2 48792  87.9008 259.8657 0001895 102.9385 257.1957 13.15548830243932
ONEWEB-0226
1 48793U 21045AC  26164.78018491  .00000082  00000+0  18340-3 0  9998
2 48793  87.9005 259.8717 0001703  98.9039 261.2284 13.15550037243903
ONEWEB-0224
1 48794U 21045AD  26164.81979363 -.00000129  00000+0 -37628-3 0  9991
2 48794  87.9003 259.8976 0002276 123.4972 236.6377 13.15546656243838
ONEWEB-0233
1 48795U 21045AE  26164.74836392 -.00000097  00000+0 -29121-3 0  9991
2 48795  87.9001 259.9195 0001745 107.2059 252.9262 13.15548434243848
ONEWEB-0190
1 48796U 21045AF  26164.81187008 -.00000053  00000+0 -17551-3 0  9999
2 48796  87.9004 259.8687 0001310 108.1562 251.9711 13.15546916243924
ONEWEB-0236
1 48797U 21045AG  26164.75325947 -.00000113  00000+0 -33384-3 0  9998
2 48797  87.9000 259.8908 0002120 102.4960 257.6407 13.15547714243805
ONEWEB-0248
1 48798U 21045AH  26164.76592573 -.00000112  00000+0 -33215-3 0  9993
2 48798  87.9009 259.8713 0001710 114.3799 245.7510 13.15546993243963
ONEWEB-0225
1 48799U 21045AJ  26164.78812259  .00000138  00000+0  33346-3 0  9993
2 48799  87.9006 259.8750 0001392 107.4064 252.7218 13.15548712243971
ONEWEB-0215
1 48800U 21045AK  26164.75799340 -.00000135  00000+0 -39379-3 0  9999
2 48800  87.9011 259.8634 0001412 114.9244 245.2034 13.15546264243846
ONEWEB-0216
1 48801U 21045AL  26164.76752361 -.00000082  00000+0 -25124-3 0  9997
2 48801  87.9009 259.8765 0001972  98.6035 261.5319 13.15548365243858
ONEWEB-0239
1 48802U 21045AM  26164.77227229  .00000045  00000+0  85789-4 0  9990
2 48802  87.8997 259.8822 0001563 124.7675 235.3603 13.15548281243891
ONEWEB-0249
1 48967U 21060A   26164.93701971  .00000068  00000+0  14540-3 0  9999
2 48967  87.9099 229.4235 0002053 101.5303 258.6059 13.16594755239182
ONEWEB-0250
1 48968U 21060B   26164.91148713  .00000074  00000+0  13973-3 0  9993
2 48968  87.9098 227.1957 0002742 116.8156 243.3261 13.25833319239782
ONEWEB-0252
1 48970U 21060D   26164.89189585 -.00000030  00000+0 -11235-3 0  9998
2 48970  87.9101 229.4246 0001949  92.3248 267.8107 13.16594073239224
ONEWEB-0253
1 48971U 21060E   26164.88081323  .00000029  00000+0  41464-4 0  9993
2 48971  87.9099 229.4323 0002065 101.6485 258.4878 13.16594018239156
ONEWEB-0254
1 48972U 21060F   26164.89031498  .00000012  00000+0 -27608-5 0  9991
2 48972  87.9102 229.4278 0001891 106.0308 254.1031 13.16594924239150
ONEWEB-0255
1 48973U 21060G   26164.92831526  .00000055  00000+0  10926-3 0  9995
2 48973  87.9097 229.4272 0001876 101.2711 258.8631 13.16593815239230
ONEWEB-0256
1 48974U 21060H   26164.87843163  .00000095  00000+0  21606-3 0  9991
2 48974  87.9095 229.4412 0002094  95.0288 265.1082 13.16593528239194
ONEWEB-0257
1 48975U 21060J   26164.68290236 -.00000029  00000+0 -11048-3 0  9996
2 48975  87.9097 229.4670 0001906  97.0671 263.0677 13.16594045239127
ONEWEB-0258
1 48976U 21060K   26164.91247903 -.00000010  00000+0 -59924-4 0  9992
2 48976  87.9098 229.4334 0002064  99.9263 260.2101 13.16593933239160
ONEWEB-0259
1 48977U 21060L   26164.90614788  .00000078  00000+0  17159-3 0  9996
2 48977  87.9096 229.4341 0002040 103.7561 256.3797 13.16594777239193
ONEWEB-0260
1 48978U 21060M   26164.89743289 -.00000016  00000+0 -74995-4 0  9990
2 48978  87.9094 229.4375 0002054  87.2350 272.9016 13.16594090239170
ONEWEB-0261
1 48979U 21060N   26164.94333491  .00000127  00000+0  29855-3 0  9992
2 48979  87.9098 229.4282 0001703  98.7676 261.3648 13.16595805239235
ONEWEB-0262
1 48980U 21060P   26164.92356262  .00000110  00000+0  25420-3 0  9999
2 48980  87.9095 229.4182 0002037 106.5238 253.6117 13.16594297239190
ONEWEB-0263
1 48981U 21060Q   26164.87922975  .00000037  00000+0  64463-4 0  9993
2 48981  87.9100 229.4384 0001731 102.1857 257.9468 13.16594872239152
ONEWEB-0264
1 48982U 21060R   26164.91644098  .00000047  00000+0  88854-4 0  9997
2 48982  87.9097 229.4343 0001884  94.4441 265.6906 13.16594927239169
ONEWEB-0266
1 48984U 21060T   26164.93781228  .00000186  00000+0  45173-3 0  9998
2 48984  87.9100 229.4203 0002116  99.1147 261.0223 13.16593931239150
ONEWEB-0267
1 48985U 21060U   26164.87289950  .00000050  00000+0  97774-4 0  9992
2 48985  87.9101 229.4298 0001828  97.4576 262.6763 13.16594470239157
ONEWEB-0268
1 48986U 21060V   26164.91721772 -.00000027  00000+0 -10453-3 0  9995
2 48986  87.9098 229.4307 0002068  94.5253 265.6114 13.16595384239429
ONEWEB-0269
1 48987U 21060W   26164.89822950 -.00000017  00000+0 -79123-4 0  9992
2 48987  87.9090 229.4373 0002203  94.2722 265.8661 13.16594746239198
ONEWEB-0270
1 48988U 21060X   26164.91564766  .00000012  00000+0 -29296-5 0  9995
2 48988  87.9098 229.4329 0001821 107.2727 252.8603 13.16594372239235
ONEWEB-0271
1 48989U 21060Y   26164.90298138 -.00000048  00000+0 -15806-3 0  9992
2 48989  87.9099 229.4255 0001838 100.6767 259.4571 13.16593992239238
ONEWEB-0272
1 48990U 21060Z   26164.92513510 -.00001480  00000+0 -39054-2 0  9991
2 48990  87.9106 229.4327 0002292  79.2720 280.8669 13.16598840239181
ONEWEB-0273
1 48991U 21060AA  26164.87131499  .00000088  00000+0  19570-3 0  9991
2 48991  87.9102 229.4424 0001929 100.7126 259.4222 13.16595203239156
ONEWEB-0274
1 48992U 21060AB  26164.89664052 -.00000074  00000+0 -22822-3 0  9991
2 48992  87.9091 229.4404 0001997  89.1224 271.0136 13.16593330239193
ONEWEB-0275
1 48993U 21060AC  26164.88556782 -.00000022  00000+0 -92264-4 0  9992
2 48993  87.9100 229.4311 0001956  95.8014 264.3340 13.16594530239126
ONEWEB-0276
1 48994U 21060AD  26164.91881153  .00000007  00000+0 -14835-4 0  9990
2 48994  87.9096 229.4242 0001993  93.4340 266.7019 13.16593382239146
ONEWEB-0277
1 48995U 21060AE  26164.93148552  .00000114  00000+0  26385-3 0  9992
2 48995  87.9092 229.4306 0001892 100.9584 259.1760 13.16593212239136
ONEWEB-0278
1 48996U 21060AF  26164.92195801 -.00000600  00000+0 -16041-2 0  9990
2 48996  87.9100 229.4226 0002264 100.7252 259.4134 13.16596070239269
ONEWEB-0279
1 48997U 21060AG  26164.92989685  .00000167  00000+0  40245-3 0  9992
2 48997  87.9099 229.4192 0001763  96.6621 263.4710 13.16594199239192
ONEWEB-0280
1 48998U 21060AH  26164.86893255  .00000102  00000+0  23245-3 0  9993
2 48998  87.9098 229.4354 0002058 107.7313 252.4042 13.16594005239127
ONEWEB-0281
1 48999U 21060AJ  26164.87448261  .00000060  00000+0  12420-3 0  9994
2 48999  87.9101 229.4294 0002096  98.2971 261.8398 13.16595339239198
ONEWEB-0282
1 49000U 21060AK  26164.90454374 -.00000246  00000+0 -67733-3 0  9999
2 49000  87.9096 229.4322 0001986 101.5529 258.5825 13.16593272239171
ONEWEB-0283
1 49001U 21060AL  26164.89347738 -.00000082  00000+0 -24919-3 0  9990
2 49001  87.9098 229.4335 0001904  97.2041 262.9306 13.16593974239181
ONEWEB-0284
1 49002U 21060AM  26164.73515626 -.00000076  00000+0 -23322-3 0  9997
2 49002  87.9100 229.4581 0002226 105.9551 254.1826 13.16594241239144
ONEWEB-0285
1 49075U 21075A   26164.93453705 -.00000347  00000+0 -10006-2 0  9999
2 49075  87.8947 351.3088 0001763  91.9676 268.1655 13.12444220234783
ONEWEB-0286
1 49076U 21075B   26164.91661349 -.00000176  00000+0 -52463-3 0  9997
2 49076  87.8937 351.3295 0001996  87.0410 273.0947 13.12441944234131
ONEWEB-0287
1 49077U 21075C   26164.82545973  .00000096  00000+0  21534-3 0  9996
2 49077  87.9134   6.5349 0002288  86.2117 273.9276 13.17649970233183
ONEWEB-0288
1 49078U 21075D   26164.89304101  .00000413  00000+0  11137-2 0  9990
2 49078  87.8946 351.3105 0002035  92.7928 267.3434 13.12442573234759
ONEWEB-0289
1 49079U 21075E   26164.94007089  .00000110  00000+0  24966-3 0  9991
2 49079  87.9141   6.5286 0001807 100.4221 259.7115 13.17650207233778
ONEWEB-0290
1 49080U 21075F   26164.83727925  .00000074  00000+0  15714-3 0  9999
2 49080  87.9143   6.5209 0001739 104.1811 255.9514 13.17648337233173
ONEWEB-0291
1 49081U 21075G   26164.59428220  .00000010  00000+0 -65955-5 0  9994
2 49081  87.9138   6.5773 0002171  93.9997 266.1382 13.17649277233132
ONEWEB-0293
1 49082U 21075H   26164.92332994  .00000032  00000+0  49906-4 0  9994
2 49082  87.9134   6.5149 0001854  92.9074 267.2270 13.17648051233203
ONEWEB-0294
1 49083U 21075J   26164.89981690  .00000301  00000+0  80104-3 0  9997
2 49083  87.8948 351.3127 0001759 101.2707 258.8619 13.12442759234143
ONEWEB-0295
1 49084U 21075K   26164.92248992  .00000047  00000+0  88445-4 0  9997
2 49084  87.9134   6.5191 0002157  90.4315 269.7064 13.17648057233169
